[
  {
    "id": 1,
    "name": "Dr. Arjun Sharma",
    "specialization": "Cardiologist",
    "address": "123 Heart Street, Delhi",
    "pincode": "400001",
    "contact": "+917095136652",
    "rating": 4.8,
    "reviews": 152,
    "fee": 1500,
    "hospital": "HeartCare Hospital",
    "experience": 10
  },
  {
    "id": 2,
    "name": "Dr. Neha Gupta",
    "specialization": "Dermatologist",
    "address": "45 Skin Avenue, Mumbai",
    "pincode": "400001",
    "contact": "9123456789",
    "rating": 4.6,
    "reviews": 98,
    "fee": 1200,
    "hospital": "SkinGlow Clinic",
    "experience": 8
  },
  {
    "id": 3,
    "name": "Dr. Ravi Kumar",
    "specialization": "General Surgeon",
    "address": "78 Wellness Lane, Bangalore",
    "pincode": "400001",
    "contact": "8901234567",
    "rating": 4.7,
    "reviews": 123,
    "fee": 1800,
    "hospital": "Wellness Hospital",
    "experience": 12
  },
  {
    "id": 4,
    "name": "Dr. Anita Desai",
    "specialization": "Pediatrician",
    "address": "12 Healthy Kids Road, Hyderabad",
    "pincode": "400001",
    "contact": "9823456781",
    "rating": 4.9,
    "reviews": 203,
    "fee": 1000,
    "hospital": "KidsCare Hospital",
    "experience": 15
  },
  {
    "id": 5,
    "name": "Dr. Sameer Singh",
    "specialization": "Orthopedic Surgeon",
    "address": "34 Bone Care Street, Pune",
    "pincode": "400001",
    "contact": "9845671234",
    "rating": 4.5,
    "reviews": 87,
    "fee": 2000,
    "hospital": "BoneCare Clinic",
    "experience": 7
  },
  {
    "id": 6,
    "name": "Dr. Priya Menon",
    "specialization": "Psychiatrist",
    "address": "90 Mind Wellness Blvd, Kochi",
    "pincode": "400001",
    "contact": "9812345678",
    "rating": 4.9,
    "reviews": 145,
    "fee": 2500,
    "hospital": "MindCare Center",
    "experience": 18
  },
  {
    "id": 7,
    "name": "Dr. Suresh Rao",
    "specialization": "Ophthalmologist",
    "address": "18 Vision Lane, Chennai",
    "pincode": "400001",
    "contact": "9876543211",
    "rating": 4.8,
    "reviews": 190,
    "fee": 1300,
    "hospital": "VisionSight Hospital",
    "experience": 10
  },
  {
    "id": 8,
    "name": "Dr. Kavita Jain",
    "specialization": "Gynecologist",
    "address": "22 Women's Health Street, Jaipur",
    "pincode": "400001",
    "contact": "9123456788",
    "rating": 4.7,
    "reviews": 134,
    "fee": 1400,
    "hospital": "Women's Health Clinic",
    "experience": 9
  },
  {
    "id": 9,
    "name": "Dr. Rajeev Pandey",
    "specialization": "Gastroenterologist",
    "address": "5 Digestive Health Blvd, Lucknow",
    "pincode": "400001",
    "contact": "9811112222",
    "rating": 4.6,
    "reviews": 99,
    "fee": 1600,
    "hospital": "DigestCare Hospital",
    "experience": 11
  },
  {
    "id": 10,
    "name": "Dr. Sneha Kapoor",
    "specialization": "General Surgeon",
    "address": "21 Health Avenue, Bangalore",
    "pincode": "400001",
    "contact": "9898989898",
    "rating": 4.8,
    "reviews": 110,
    "fee": 1800,
    "hospital": "HealthCare Hospital",
    "experience": 12
  },
  {
    "id": 11,
    "name": "Dr. Rohit Singh",
    "specialization": "Orthopedic Surgeon",
    "address": "16 Joint Care Lane, Pune",
    "pincode": "400001",
    "contact": "9887766554",
    "rating": 4.5,
    "reviews": 75,
    "fee": 2100,
    "hospital": "JointCare Clinic",
    "experience": 6
  },
  {
    "id": 12,
    "name": "Dr. Seema Patel",
    "specialization": "Pediatrician",
    "address": "10 Little Ones Blvd, Hyderabad",
    "pincode": "400001",
    "contact": "9776655443",
    "rating": 4.9,
    "reviews": 180,
    "fee": 1100,
    "hospital": "LittleCare Hospital",
    "experience": 14
  }
]
 